IRIDIUM 7               
1 24793U 97020B   24236.57367819  .00000870  00000+0  29649-3 0  9993
2 24793  86.3957 301.6139 0002319  87.3819 272.7642 14.35371722429199
IRIDIUM 5               
1 24795U 97020D   24236.45236483  .00008397  00000+0  77835-3 0  9996
2 24795  86.3916 220.3538 0122525 122.5977 238.7148 14.88698776441078
IRIDIUM 4               
1 24796U 97020E   24236.60671165  .00000765  00000+0  25535-3 0  9995
2 24796  86.3948 298.6720 0002373  93.4841 266.6627 14.36298743429744
IRIDIUM 914             
1 24836U 97030A   24236.59529122  .00001078  00000+0  33510-3 0  9994
2 24836  86.3945 308.1671 0003844 106.3653 253.7969 14.40184433564287
IRIDIUM 16              
1 24841U 97030F   24236.53087603  .00001220  00000+0  39669-3 0  9997
2 24841  86.4077 330.3459 0001804  27.9028 332.2266 14.38076456424212
IRIDIUM 911             
1 24842U 97030G   24236.53898793  .00001570  00000+0  42803-3 0  9990
2 24842  86.4502 329.4091 0014676  18.6896 341.4842 14.46770489432035
IRIDIUM 17              
1 24870U 97034B   24236.61218712  .00001336  00000+0  44307-3 0  9992
2 24870  86.4008 359.8730 0000481 108.9908 251.1341 14.37167949420837
IRIDIUM 920             
1 24871U 97034C   24236.58591257  .00001188  00000+0  36452-3 0  9994
2 24871  86.4024 339.8169 0011037 354.5853   5.5225 14.40882403423712
